GEISAT PRECURSOR        
1 56934U 23084C   26060.51032541  .00010705  00000+0  33966-3 0  9991
2 56934  97.6035 198.1693 0005775  18.0734 342.0712 15.32856920151022
BLACKJACK ACES-3        
1 56950U 23084U   26060.31853449  .00009595  00000+0  44299-3 0  9991
2 56950  97.6016 194.7505 0004020  40.7336 319.4199 15.20423230150796
BLACKJACK ACES-2        
1 56955U 23084Z   26060.32443438  .00012738  00000+0  58594-3 0  9996
2 56955  97.6018 194.8448 0001804  61.5901 298.5515 15.20476874150809
BLACKJACK ACES-1        
1 56956U 23084AA  26060.44409089  .00012555  00000+0  58028-3 0  9993
2 56956  97.5999 194.7553 0001237  74.3982 285.7389 15.20317965100542
ION SCV-011             
1 56957U 23084AB  26060.49167674  .00007446  00000+0  27870-3 0  9994
2 56957  98.1336 237.8909 0008318  57.2291 302.9746 15.27615199149368
GHOST-3                 
1 56958U 23084AC  26060.32994880  .00023310  00000+0  51629-3 0  9991
2 56958  97.6040 203.5411 0006626 326.5600  33.5228 15.43764926151354
TOMORROW-R2             
1 56962U 23084AG  26060.35273388  .00095352  00000+0  78783-3 0  9997
2 56962  97.5881 212.9018 0004750 274.0372  86.0346 15.69994633151988
AFR-1                   
1 56964U 23084AJ  26060.50912628  .00007110  00000+0  26741-3 0  9995
2 56964  97.6081 194.8103 0010644   5.6244 354.5112 15.27415698150785
METEOR-M2 3             
1 57166U 23091A   26060.52658906  .00000028  00000+0  31007-4 0  9999
2 57166  98.6233 117.6402 0004991 117.7704 242.3982 14.24036671139196
UMKA 1 (RS40S)          
1 57172U 23091G   26060.47232817  .00007750  00000+0  36780-3 0  9990
2 57172  97.5202 119.6123 0014427 131.7722 228.4748 15.19449526147646
2023-091H               
1 57173U 23091H   26060.48326722  .00014052  00000+0  54605-3 0  9990
2 57173  97.5194 122.9295 0011663 130.0679 230.1584 15.26109640147866
2023-091J               
1 57174U 23091J   26060.49225329  .00005662  00000+0  32267-3 0  9990
2 57174  97.5213 115.1048 0014237 154.2437 205.9505 15.13110248147347
CUBEBEL 2 (EU11S)       
1 57175U 23091K   26060.44734477  .00015317  00000+0  58922-3 0  9999
2 57175  97.5197 122.8465 0011668 132.1070 228.1163 15.26425544147855
SITRO-AIS 5 (KATYS)     
1 57176U 23091L   26060.48846565  .00015772  00000+0  59951-3 0  9994
2 57176  97.5205 123.5025 0013419 121.1327 239.1230 15.26794988147897
ZORKIY-2M 1             
1 57177U 23091M   26060.52452115  .00009653  00000+0  45834-3 0  9990
2 57177  97.5243 119.8749 0015026 129.1366 231.1207 15.19353080147643
CUBESX-HSE 3 (RS42S)    
1 57178U 23091N   26060.51124100  .00017570  00000+0  63769-3 0  9994
2 57178  97.5232 124.9000 0012810 112.9729 247.2863 15.28305949147962
MONITOR-3 (RS58S)       
1 57180U 23091Q   26060.51401817  .00014368  00000+0  56828-3 0  9990
2 57180  97.5227 123.2833 0013672 117.6920 242.5707 15.25491084147864
MONITOR-4 (RS57S)       
1 57182U 23091S   26060.49960075  .00014106  00000+0  55655-3 0  9992
2 57182  97.5221 123.2330 0013720 118.1597 242.1029 15.25576440147865
MONITOR-2 (RS39S)       
1 57184U 23091U   26060.49852432  .00007141  00000+0  35585-3 0  9992
2 57184  97.5226 119.4855 0012818 124.0021 236.2432 15.17794128147617
SVYATOBOR 1 (RS60S)     
1 57187U 23091X   26060.49657588  .00012446  00000+0  50643-3 0  9996
2 57187  97.5234 123.8044 0011283 110.1799 250.0653 15.24600390147895
HORS 1                  
1 57188U 23091Y   26060.48828675  .00012169  00000+0  49430-3 0  9997
2 57188  97.5213 123.5745 0010798 110.1827 250.0573 15.24670034147893
VIZARD-METEO (RS38S)    
1 57189U 23091Z   26060.53649914  .00021456  00000+0  68665-3 0  9991
2 57189  97.5222 128.0935 0009061  97.0765 263.1508 15.32388349148180
NANOZOND 1 (RS49S)      
1 57190U 23091AA  26060.34677334  .00178182  00000+0  13979-2 0  9995
2 57190  97.5106 139.9456 0000822  92.2846 267.8511 15.71002638148963
SITRO-AIS 6 (CHIRKIN)   
1 57192U 23091AC  26060.50837111  .00008893  00000+0  36626-3 0  9992
2 57192  97.5208 123.1500 0014104 120.8066 239.4561 15.24253976147873
SITRO-AIS 8 (ANOKHIN)   
1 57193U 23091AD  26060.54811306  .00015720  00000+0  55848-3 0  9999
2 57193  97.5197 124.7516 0012594 118.4284 241.8226 15.29034453147980
SITRO-AIS 7 (FARTUSHNIY)
1 57194U 23091AE  26060.49159571  .00007462  00000+0  31006-3 0  9997
2 57194  97.5208 123.0076 0013907 121.8445 238.4148 15.24018368147867
AVION KALUGA 650        
1 57195U 23091AF  26060.51077363  .00008382  00000+0  40210-3 0  9998
2 57195  97.5241 120.5455 0012004 122.6095 237.6300 15.19077967147679
HORS 2                  
1 57196U 23091AG  26060.54854574  .00016137  00000+0  57465-3 0  9996
2 57196  97.5225 126.2772 0009998 104.6313 255.6036 15.28978651148068
A-SEANSAT-PG1           
1 57197U 23091AH  26060.51987561  .00022498  00000+0  70561-3 0  9996
2 57197  97.5214 128.0561 0009114 103.8733 256.3523 15.33023963148196
SITRO-AIS 10 (BURDAEV)  
1 57199U 23091AK  26060.47121858  .00024135  00000+0  72639-3 0  9990
2 57199  97.5210 128.7216 0008521 100.3197 259.9006 15.34325343148222
