OBJECT_NAME,OBJECT_ID,EPOCH,MEAN_MOTION,ECCENTRICITY,INCLINATION,RA_OF_ASC_NODE,ARG_OF_PERICENTER,MEAN_ANOMALY,EPHEMERIS_TYPE,CLASSIFICATION_TYPE,NORAD_CAT_ID,ELEMENT_SET_NO,REV_AT_EPOCH,BSTAR,MEAN_MOTION_DOT,MEAN_MOTION_DDOT
GEISAT PRECURSOR,2023-084C,2026-03-01T12:14:52.115424,15.32856920,.0005775,97.6035,198.1693,18.0734,342.0712,0,U,56934,999,15102,.33966E-3,.10705E-3,0
BLACKJACK ACES-3,2023-084U,2026-03-01T07:38:41.379936,15.20423230,.000402,97.6016,194.7505,40.7336,319.4199,0,U,56950,999,15079,.44299E-3,.9595E-4,0
BLACKJACK ACES-2,2023-084Z,2026-03-01T07:47:11.130432,15.20476874,.0001804,97.6018,194.8448,61.5901,298.5515,0,U,56955,999,15080,.58594E-3,.12738E-3,0
BLACKJACK ACES-1,2023-084AA,2026-03-01T10:39:29.452896,15.20317965,.0001237,97.5999,194.7553,74.3982,285.7389,0,U,56956,999,10054,.58028E-3,.12555E-3,0
ION SCV-011,2023-084AB,2026-03-01T11:48:00.870336,15.27615199,.0008318,98.1336,237.8909,57.2291,302.9746,0,U,56957,999,14936,.2787E-3,.7446E-4,0
GHOST-3,2023-084AC,2026-03-01T07:55:07.576320,15.43764926,.0006626,97.6040,203.5411,326.5600,33.5228,0,U,56958,999,15135,.51629E-3,.2331E-3,0
TOMORROW-R2,2023-084AG,2026-03-01T08:27:56.207232,15.69994633,.000475,97.5881,212.9018,274.0372,86.0346,0,U,56962,999,15198,.78783E-3,.95352E-3,0
AFR-1,2023-084AJ,2026-03-01T12:13:08.510592,15.27415698,.0010644,97.6081,194.8103,5.6244,354.5112,0,U,56964,999,15078,.26741E-3,.711E-4,0
METEOR-M2 3,2023-091A,2026-03-01T12:38:17.294784,14.24036671,.0004991,98.6233,117.6402,117.7704,242.3982,0,U,57166,999,13919,.31007E-4,.28E-6,0
UMKA 1 (RS40S),2023-091G,2026-03-01T11:20:09.153888,15.19449526,.0014427,97.5202,119.6123,131.7722,228.4748,0,U,57172,999,14764,.3678E-3,.775E-4,0
2023-091H,2023-091H,2026-03-01T11:35:54.287808,15.26109640,.0011663,97.5194,122.9295,130.0679,230.1584,0,U,57173,999,14786,.54605E-3,.14052E-3,0
2023-091J,2023-091J,2026-03-01T11:48:50.684256,15.13110248,.0014237,97.5213,115.1048,154.2437,205.9505,0,U,57174,999,14734,.32267E-3,.5662E-4,0
CUBEBEL 2 (EU11S),2023-091K,2026-03-01T10:44:10.588128,15.26425544,.0011668,97.5197,122.8465,132.1070,228.1163,0,U,57175,999,14785,.58922E-3,.15317E-3,0
SITRO-AIS 5 (KATYS),2023-091L,2026-03-01T11:43:23.432160,15.26794988,.0013419,97.5205,123.5025,121.1327,239.1230,0,U,57176,999,14789,.59951E-3,.15772E-3,0
ZORKIY-2M 1,2023-091M,2026-03-01T12:35:18.627360,15.19353080,.0015026,97.5243,119.8749,129.1366,231.1207,0,U,57177,999,14764,.45834E-3,.9653E-4,0
CUBESX-HSE 3 (RS42S),2023-091N,2026-03-01T12:16:11.222400,15.28305949,.001281,97.5232,124.9000,112.9729,247.2863,0,U,57178,999,14796,.63769E-3,.1757E-3,0
MONITOR-3 (RS58S),2023-091Q,2026-03-01T12:20:11.169888,15.25491084,.0013672,97.5227,123.2833,117.6920,242.5707,0,U,57180,999,14786,.56828E-3,.14368E-3,0
MONITOR-4 (RS57S),2023-091S,2026-03-01T11:59:25.504800,15.25576440,.001372,97.5221,123.2330,118.1597,242.1029,0,U,57182,999,14786,.55655E-3,.14106E-3,0
MONITOR-2 (RS39S),2023-091U,2026-03-01T11:57:52.501248,15.17794128,.0012818,97.5226,119.4855,124.0021,236.2432,0,U,57184,999,14761,.35585E-3,.7141E-4,0
SVYATOBOR 1 (RS60S),2023-091X,2026-03-01T11:55:04.156032,15.24600390,.0011283,97.5234,123.8044,110.1799,250.0653,0,U,57187,999,14789,.50643E-3,.12446E-3,0
HORS 1,2023-091Y,2026-03-01T11:43:07.975200,15.24670034,.0010798,97.5213,123.5745,110.1827,250.0573,0,U,57188,999,14789,.4943E-3,.12169E-3,0
VIZARD-METEO (RS38S),2023-091Z,2026-03-01T12:52:33.525696,15.32388349,.0009061,97.5222,128.0935,97.0765,263.1508,0,U,57189,999,14818,.68665E-3,.21456E-3,0
NANOZOND 1 (RS49S),2023-091AA,2026-03-01T08:19:21.216576,15.71002638,.0000822,97.5106,139.9456,92.2846,267.8511,0,U,57190,999,14896,.13979E-2,.178182E-2,0
SITRO-AIS 6 (CHIRKIN),2023-091AC,2026-03-01T12:12:03.263904,15.24253976,.0014104,97.5208,123.1500,120.8066,239.4561,0,U,57192,999,14787,.36626E-3,.8893E-4,0
SITRO-AIS 8 (ANOKHIN),2023-091AD,2026-03-01T13:09:16.968384,15.29034453,.0012594,97.5197,124.7516,118.4284,241.8226,0,U,57193,999,14798,.55848E-3,.1572E-3,0
SITRO-AIS 7 (FARTUSHNIY),2023-091AE,2026-03-01T11:47:53.869344,15.24018368,.0013907,97.5208,123.0076,121.8445,238.4148,0,U,57194,999,14786,.31006E-3,.7462E-4,0
AVION KALUGA 650,2023-091AF,2026-03-01T12:15:30.841632,15.19077967,.0012004,97.5241,120.5455,122.6095,237.6300,0,U,57195,999,14767,.4021E-3,.8382E-4,0
HORS 2,2023-091AG,2026-03-01T13:09:54.351936,15.28978651,.0009998,97.5225,126.2772,104.6313,255.6036,0,U,57196,999,14806,.57465E-3,.16137E-3,0
A-SEANSAT-PG1,2023-091AH,2026-03-01T12:28:37.252704,15.33023963,.0009114,97.5214,128.0561,103.8733,256.3523,0,U,57197,999,14819,.70561E-3,.22498E-3,0
SITRO-AIS 10 (BURDAEV),2023-091AK,2026-03-01T11:18:33.285312,15.34325343,.0008521,97.5210,128.7216,100.3197,259.9006,0,U,57199,999,14822,.72639E-3,.24135E-3,0
